FLOCK 4G-36             
1 62675U 25009BU  26068.70726311  .00013573  00000+0  51122-3 0  9993
2 62675  97.4053 151.0513 0003474 324.2456  35.8550 15.27209548 63701
STARLINK-36441          
1 67469U 26008AA  26068.59174816  .00023438  00000+0  85882-3 0  9994
2 67469  42.9987 206.0758 0001634 278.6295  81.4372 15.27568643  9555
